# Running log file for GPS_BIIRM-2_(PRN_31) TLE data from Celestrack TLE repository (sourced from NORAD)

# Line 1 is: <line> <sat_num> <int_desig> <ep_yr_fracday> <1_der_mm> <2_der_mm> <drag> <eph_typ> <el_set> <cs>
# TLE Line 2 is: <line> <sat_num> <incl> <ra> <ecc> <peri> <m_anom> <m_mot> <rev_num> <cs>

#####################################################################
Mon, 01 Jun 2015 16:06:03 GMT
1 29486U 06042A   15152.45367293 -.00000054  00000-0  00000+0 0  9993
2 29486  55.8734 312.0718 0081997 329.2378  18.5544  2.00550331 63637

